LAOSAT 1                
1 41034U 15067A   26187.02987171 -.00000328  00000+0  00000+0 0  9992
2 41034   0.0289 201.5759 0002492 216.8308   4.8781  1.00273478 39043
TELSTAR 12V             
1 41036U 15068A   26187.14408084 -.00000105  00000+0  00000+0 0  9992
2 41036   0.0140  65.5997 0002332  37.4007 218.0029  1.00270966 38816
ELEKTRO-L 2             
1 41105U 15074A   26186.93027453 -.00000106  00000+0  00000+0 0  9990
2 41105   6.7384  70.2943 0000596 255.0166 278.9782  1.00273562 38696
COSMOS 2513             
1 41121U 15075A   26187.16288762 -.00000124  00000+0  00000+0 0  9997
2 41121   0.0634 104.8536 0003144 337.7126 340.4766  1.00272495 38733
EXPRESS-AMU1            
1 41191U 15082A   26187.22541278  .00000000  00000+0  00000+0 0  9995
2 41191   0.0202  31.8614 0002391  82.8968 286.6979  1.00268784 38454
GAOFEN-4                
1 41194U 15083A   26187.02536502 -.00000321  00000+0  00000+0 0  9998
2 41194   0.4032  83.8443 0004131 116.1240 198.8874  1.00272443 38711
BELINTERSAT-1           
1 41238U 16001A   26187.22853279  .00000121  00000+0  00000+0 0  9990
2 41238   0.0151  85.6965 0001836 342.6649 349.6044  1.00270868 38427
IRNSS-1E                
1 41241U 16003A   26186.56850072 -.00000299  00000+0  00000+0 0  9997
2 41241  33.2728  59.4834 0019163 178.9195   1.5806  1.00270145 38261
EUTELSAT 9B             
1 41310U 16005A   26187.29133006  .00000076  00000+0  00000+0 0  9990
2 41310   0.0656  72.5021 0001301  12.1009 313.5421  1.00272426 38300
SES-9                   
1 41380U 16013A   26187.15878024 -.00000331  00000+0  00000+0 0  9992
2 41380   0.0175 323.0508 0002338 139.0335 347.5185  1.00271706 37638
EUTELSAT 65 WEST A      
1 41382U 16014A   26187.27668332 -.00000262  00000+0  00000+0 0  9990
2 41382   0.0762 306.8427 0002276 156.8720 214.9659  1.00273107 37716
IRNSS-1F                
1 41384U 16015A   26186.93958420  .00000170  00000+0  00000+0 0  9992
2 41384   5.3947  96.3563 0017399 183.7967  14.5208  1.00276801 37850
BEIDOU-2 IGSO-6         
1 41434U 16021A   26177.11016981 -.00000145  00000+0  00000+0 0  9995
2 41434  60.2385  37.9495 0057558 231.0163 137.2672  1.00258926 37578
IRNSS-1G                
1 41469U 16027A   26186.91676595 -.00000321  00000+0  00000+0 0  9996
2 41469   5.2407  97.0429 0005820   7.6923 278.8170  1.00277901 37366
JCSAT-2B                
1 41471U 16028A   26187.24881288 -.00000151  00000+0  00000+0 0  9995
2 41471   0.0186  31.4988 0000961  76.3485  59.9685  1.00270249 37328
THAICOM 8               
1 41552U 16031A   26187.16254095 -.00000107  00000+0  00000+0 0  9991
2 41552   0.0582  36.1109 0003377  35.1252 349.9271  1.00271578 36906
INTELSAT 31 (IS-31)     
1 41581U 16035A   26187.27078995 -.00000136  00000+0  00000+0 0  9994
2 41581   0.0403 211.4121 0000829  55.4380  19.8435  1.00270733 36871
BEIDOU-2 G7             
1 41586U 16037A   26187.31143631 -.00000339  00000+0  00000+0 0  9991
2 41586   1.7644  69.4575 0006564   5.4670  71.9792  1.00267153  7082
ABS-2A (MONGOLSAT-1)    
1 41588U 16038A   26187.09054277  .00000000  00000+0  00000+0 0  9990
2 41588   0.0186  27.5603 0001524  22.5550 341.2898  1.00264808 36897
EUTELSAT 117 WEST B     
1 41589U 16038B   26187.19513444  .00000003  00000+0  00000+0 0  9991
2 41589   0.0026 206.3691 0000094 299.3488  91.7035  1.00271390 36850
BRISAT                  
1 41591U 16039A   26187.24811955 -.00000182  00000+0  00000+0 0  9998
2 41591   0.0167 332.7805 0002065 133.0501  58.2287  1.00270941 36803
ECHOSTAR 18             
1 41592U 16039B   26187.27746332 -.00000268  00000+0  00000+0 0  9993
2 41592   0.0023 118.3075 0001487 359.5049 204.9707  1.00271356 36810
MUOS-5                  
1 41622U 16041A   26187.26922995 -.00000098  00000+0  00000+0 0  9991
2 41622   2.1647 301.9971 0198930 260.6013  73.4285  1.00272206 37273
TIANTONG-1 1            
1 41725U 16048A   26187.02449834 -.00000305  00000+0  00000+0 0  9993
2 41725   3.8833  43.5493 0005299  53.2965 297.3796  1.00273642 36455
JCSAT-16                
1 41729U 16050A   26187.24681954 -.00000237  00000+0  00000+0 0  9999
2 41729   0.0191  37.1881 0001014  76.8538  42.9993  1.00270344 36261
USA 270                 
1 41744U 16052A   26176.62624484 -.00000284  00000+0  00000+0 0  9995
2 41744   4.2178  77.0981 0000668 157.1810  56.2495  0.99500516 28218
USA 271                 
1 41745U 16052B   26176.75914149 -.00000236  00000+0  00000+0 0  9997
2 41745   4.1909  77.1447 0001955 290.7679 281.9940  0.99833204 28007
INTELSAT 36 (IS-36)     
1 41747U 16053A   26187.08932942 -.00000010  00000+0  00000+0 0  9999
2 41747   0.0088 357.7532 0002156 348.3303  38.6546  1.00272333 36148
INSAT-3DR               
1 41752U 16054A   26187.13239234 -.00000063  00000+0  00000+0 0  9994
2 41752   0.0464  89.5042 0010330 181.5400 134.7299  1.00272430 36002
GSAT-18                 
1 41793U 16060A   26187.16167427 -.00000062  00000+0  00000+0 0  9992
2 41793   0.0163  66.9358 0005638   9.6304 339.7561  1.00271625 35711
SKY MUSTER 2 (NBN1B)    
1 41794U 16060B   26187.17571434 -.00000230  00000+0  00000+0 0  9998
2 41794   0.0147 324.5485 0001593 135.4291  32.2336  1.00271368 35716
HIMAWARI-9              
1 41836U 16064A   26187.24621287 -.00000260  00000+0  00000+0 0  9992
2 41836   0.0155 289.0129 0001292 214.8166   9.7982  1.00272247 35400
