OBJECT_NAME,OBJECT_ID,EPOCH,MEAN_MOTION,ECCENTRICITY,INCLINATION,RA_OF_ASC_NODE,ARG_OF_PERICENTER,MEAN_ANOMALY,EPHEMERIS_TYPE,CLASSIFICATION_TYPE,NORAD_CAT_ID,ELEMENT_SET_NO,REV_AT_EPOCH,BSTAR,MEAN_MOTION_DOT,MEAN_MOTION_DDOT
LAOSAT 1,2015-067A,2026-07-06T00:43:00.915744,1.00273478,.00024923,0.0289,201.5759,216.8308,4.8781,0,U,41034,999,3904,0,-.328E-5,0
TELSTAR 12V,2015-068A,2026-07-06T03:27:28.584576,1.00270966,.00023329,0.0140,65.5997,37.4007,218.0029,0,U,41036,999,3881,0,-.105E-5,0
ELEKTRO-L 2,2015-074A,2026-07-05T22:19:35.719392,1.00273562,.00005965,6.7384,70.2943,255.0166,278.9782,0,U,41105,999,3869,0,-.106E-5,0
COSMOS 2513,2015-075A,2026-07-06T03:54:33.490368,1.00272495,.00031442,0.0634,104.8536,337.7126,340.4766,0,U,41121,999,3873,0,-.124E-5,0
EXPRESS-AMU1,2015-082A,2026-07-06T05:24:35.664192,1.00268784,.00023911,0.0202,31.8614,82.8968,286.6979,0,U,41191,999,3845,0,0,0
GAOFEN-4,2015-083A,2026-07-06T00:36:31.537728,1.00272443,.00041319,0.4032,83.8443,116.1240,198.8874,0,U,41194,999,3871,0,-.321E-5,0
BELINTERSAT-1,2016-001A,2026-07-06T05:29:05.233056,1.00270868,.00018365,0.0151,85.6965,342.6649,349.6044,0,U,41238,999,3842,0,.121E-5,0
IRNSS-1E,2016-003A,2026-07-05T13:38:38.462208,1.00270145,.00191631,33.2728,59.4834,178.9195,1.5806,0,U,41241,999,3826,0,-.299E-5,0
EUTELSAT 9B,2016-005A,2026-07-06T06:59:30.917184,1.00272426,.00013014,0.0656,72.5021,12.1009,313.5421,0,U,41310,999,3830,0,.76E-6,0
SES-9,2016-013A,2026-07-06T03:48:38.612736,1.00271706,.00023387,0.0175,323.0508,139.0335,347.5185,0,U,41380,999,3763,0,-.331E-5,0
EUTELSAT 65 WEST A,2016-014A,2026-07-06T06:38:25.438848,1.00273107,.00022766,0.0762,306.8427,156.8720,214.9659,0,U,41382,999,3771,0,-.262E-5,0
IRNSS-1F,2016-015A,2026-07-05T22:33:00.074880,1.00276801,.00173998,5.3947,96.3563,183.7967,14.5208,0,U,41384,999,3785,0,.17E-5,0
BEIDOU-2 IGSO-6,2016-021A,2026-06-26T02:38:38.671584,1.00258926,.0057558,60.2385,37.9495,231.0163,137.2672,0,U,41434,999,3757,0,-.145E-5,0
IRNSS-1G,2016-027A,2026-07-05T22:00:08.578080,1.00277901,.00058208,5.2407,97.0429,7.6923,278.8170,0,U,41469,999,3736,0,-.321E-5,0
JCSAT-2B,2016-028A,2026-07-06T05:58:17.432832,1.00270249,.00009617,0.0186,31.4988,76.3485,59.9685,0,U,41471,999,3732,0,-.151E-5,0
THAICOM 8,2016-031A,2026-07-06T03:54:03.538080,1.00271578,.00033771,0.0582,36.1109,35.1252,349.9271,0,U,41552,999,3690,0,-.107E-5,0
INTELSAT 31 (IS-31),2016-035A,2026-07-06T06:29:56.251680,1.00270733,.00008295,0.0403,211.4121,55.4380,19.8435,0,U,41581,999,3687,0,-.136E-5,0
BEIDOU-2 G7,2016-037A,2026-07-06T07:28:28.097184,1.00267153,.00065643,1.7644,69.4575,5.4670,71.9792,0,U,41586,999,708,0,-.339E-5,0
ABS-2A (MONGOLSAT-1),2016-038A,2026-07-06T02:10:22.895328,1.00264808,.00015243,0.0186,27.5603,22.5550,341.2898,0,U,41588,999,3689,0,0,0
EUTELSAT 117 WEST B,2016-038B,2026-07-06T04:40:59.615616,1.00271390,.00000943,0.0026,206.3691,299.3488,91.7035,0,U,41589,999,3685,0,.3E-7,0
BRISAT,2016-039A,2026-07-06T05:57:17.529120,1.00270941,.0002065,0.0167,332.7805,133.0501,58.2287,0,U,41591,999,3680,0,-.182E-5,0
ECHOSTAR 18,2016-039B,2026-07-06T06:39:32.830848,1.00271356,.0001487,0.0023,118.3075,359.5049,204.9707,0,U,41592,999,3681,0,-.268E-5,0
MUOS-5,2016-041A,2026-07-06T06:27:41.467680,1.00272206,.01989305,2.1647,301.9971,260.6013,73.4285,0,U,41622,999,3727,0,-.98E-6,0
TIANTONG-1 1,2016-048A,2026-07-06T00:35:16.656576,1.00273642,.00052991,3.8833,43.5493,53.2965,297.3796,0,U,41725,999,3645,0,-.305E-5,0
JCSAT-16,2016-050A,2026-07-06T05:55:25.208256,1.00270344,.00010149,0.0191,37.1881,76.8538,42.9993,0,U,41729,999,3626,0,-.237E-5,0
USA 270,2016-052A,2026-06-25T15:01:47.554176,0.99500516,.0000668,4.2178,77.0981,157.1810,56.2495,0,U,41744,999,2821,0,-.284E-5,0
USA 271,2016-052B,2026-06-25T18:13:09.824736,0.99833204,.0001955,4.1909,77.1447,290.7679,281.9940,0,U,41745,999,2800,0,-.236E-5,0
INTELSAT 36 (IS-36),2016-053A,2026-07-06T02:08:38.061888,1.00272333,.00021565,0.0088,357.7532,348.3303,38.6546,0,U,41747,999,3614,0,-.1E-6,0
INSAT-3DR,2016-054A,2026-07-06T03:10:38.698176,1.00272430,.00103309,0.0464,89.5042,181.5400,134.7299,0,U,41752,999,3600,0,-.63E-6,0
GSAT-18,2016-060A,2026-07-06T03:52:48.656928,1.00271625,.00056384,0.0163,66.9358,9.6304,339.7561,0,U,41793,999,3571,0,-.62E-6,0
SKY MUSTER 2 (NBN1B),2016-060B,2026-07-06T04:13:01.718976,1.00271368,.00015937,0.0147,324.5485,135.4291,32.2336,0,U,41794,999,3571,0,-.23E-5,0
HIMAWARI-9,2016-064A,2026-07-06T05:54:32.791968,1.00272247,.0001292,0.0155,289.0129,214.8166,9.7982,0,U,41836,999,3540,0,-.26E-5,0
